KAITUO 1B               
1 40912U 15049P   17335.72851109  .00001800  00000-0  91004-4 0  9994
2 40912  97.4513 340.9290 0015101 345.7316 101.4208 15.18244269121700
TIANWANG 1C (TW-1C)     
1 40926U 15051B   17335.78414535  .00009614  00000-0  19913-3 0  9995
2 40926  97.2111  14.1887 0008864 283.0987 167.2454 15.45926210122780
TIANWANG 1B (TW-1B)     
1 40927U 15051C   17335.78233549  .00009525  00000-0  20521-3 0  9998
2 40927  97.2199  14.1263 0008860 296.5032 153.9946 15.44767749122711
TIANWANG 1A (TW-1A)     
1 40928U 15051D   17335.87267361  .00003355  00000-0  93211-4 0  9990
2 40928  97.2101   8.6474 0011162 322.2995  39.2843 15.37516212122453
LAPAN-A2 (IO-86)        
1 40931U 15052B   17335.62413618  .00000840  00000-0  28046-4 0  9996
2 40931   5.9961 118.8051 0012725  91.7730 268.3901 14.76558701117751
LQSAT                   
1 40958U 15057A   17335.76435262  .00000060  00000-0  17168-4 0  9991
2 40958  97.9631  48.0210 0016755 247.6986 112.2437 14.73004120115788
CHUBUSAT-2              
1 41338U 16012B   17335.46785441  .00000422  00000-0  26311-4 0  9992
2 41338  31.0025 129.7494 0014061 275.6925  84.2106 14.99879412 98121
CHUBUSAT-3              
1 41339U 16012C   17335.77292906  .00000409  00000-0  25194-4 0  9999
2 41339  31.0080 126.6981 0014103 284.8864  75.0214 15.00074297 98153
OUFTI-1                 
1 41458U 16025C   17335.82029196  .00002695  00000-0  14432-3 0  9991
2 41458  98.1646  22.9104 0172948  89.1562 272.9465 15.03998814 87769
E-ST@R-II               
1 41459U 16025D   17335.72867342  .00001817  00000-0  98770-4 0  9997
2 41459  98.1673  22.7253 0174741  89.9066 272.2168 15.03786708 87741
AAUSAT 4                
1 41460U 16025E   17335.81243384  .00003501  00000-0  18566-3 0  9999
2 41460  98.1604  23.0484 0165806  87.0679 274.9493 15.04970701 87792
NUSAT 1 (LO-87)         
1 41557U 16033B   17335.79647699  .00001887  00000-0  72136-4 0  9998
2 41557  97.4529  55.2760 0015273 131.5879 228.6672 15.27773317 84016
BEESAT-4                
1 41619U 16040W   17335.21872323  .00002057  00000-0  94411-4 0  9996
2 41619  97.4434  35.8769 0011372 196.5076 163.5791 15.21509393 67980
PRATHAM                 
1 41783U 16059A   17335.74099121  .00000091  00000-0  27045-4 0  9998
2 41783  98.1467  35.1949 0033441 357.6842   2.4199 14.62883771 63091
ALSAT 1N                
1 41789U 16059G   17335.72710274  .00000138  00000-0  35321-4 0  9999
2 41789  98.1470  36.0093 0028176 351.7628   8.3097 14.64106187 63124
NAYIF-1 (EO-88)         
1 42017U 17008BX  17335.80666100  .00002012  00000-0  86560-4 0  9990
2 42017  97.4761  36.8249 0006481   8.4939 351.6407 15.23785515 44000
LILACSAT-1              
1 42725U 98067ME  17335.80193576  .00020108  00000-0  23818-3 0  9994
2 42725  51.6386 278.2988 0004706 194.5472 165.5387 15.61221203 29609
MAX VALIER SAT          
1 42778U 17036P   17335.23531940  .00001430  00000-0  67746-4 0  9993
2 42778  97.4320  32.9707 0013880  48.4358 311.8065 15.20869736 24417
FOX-1B (AO-91)          
1 43017U 17073E   17335.38306282  .00000533  00000-0  47715-4 0  9993
2 43017  97.6917 269.9726 0260279 195.1736 164.1563 14.77782630  1894
